CALSPHERE 1             
1 00900U 64063C   23291.11416413  .00001141  00000+0  11926-2 0  9993
2 00900  90.1964  50.3048 0025301 357.4361  56.6635 13.74546414937638
CALSPHERE 2             
1 00902U 64063E   23291.13842802  .00000106  00000+0  14680-3 0  9993
2 00902  90.2113  53.7346 0018915 166.4548 315.3501 13.52766282724705
LCS 1                   
1 01361U 65034C   23291.04597163  .00000016  00000+0  96970-3 0  9991
2 01361  32.1452 327.5973 0005600 192.0382 167.9982  9.89303678113518
TEMPSAT 1               
1 01512U 65065E   23291.12545236  .00000093  00000+0  16664-3 0  9993
2 01512  89.9448 215.2533 0071728 100.6744 326.4244 13.33490248830363
CALSPHERE 4A            
1 01520U 65065H   23291.09756563  .00000156  00000+0  28515-3 0  9993
2 01520  89.9582 129.1434 0068354 330.0273 157.6963 13.35999021832764
OPS 5712 (P/L 160)      
1 02826U 67053A   23291.49750669  .00008363  00000+0  19368-2 0  9990
2 02826  69.9269 220.4934 0005195 342.9042  17.1919 14.55365442924102
OPS 5712 (P/L 153)      
1 02874U 67053H   23291.50185666  .00000128  00000+0  13133-3 0  9990
2 02874  69.9758  39.6939 0007186 356.1450   3.9599 13.96514713871441
SURCAL 150B             
1 02909U 67053J   23291.44969315  .00011590  00000+0  18274-2 0  9998
2 02909  69.9437 183.4129 0001440 348.5824  11.5288 14.72590351935707
RIGIDSPHERE 2 (LCS 4)   
1 05398U 71067E   23291.17301417  .00001452  00000+0  49237-3 0  9996
2 05398  87.6201 248.2280 0060553 213.6852 146.0492 14.35122024734186
COSMOS 2493 (SKRL-756 1)
1 39490U 13078A   23291.55789442  .00004041  00000+0  39445-3 0  9991
2 39490  82.4141 125.5549 0014680 275.3440  84.6104 14.92121289532734
COSMOS 2494 (SKRL-756 2)
1 39491U 13078B   23291.49950123  .00004143  00000+0  38728-3 0  9997
2 39491  82.4136 118.2558 0018932 245.0482 114.8772 14.93785197533117
